1 27386U 02009A   10196.20763290  .00000024  00000-0  24969-4 0  2435
2 27386 098.5500 262.9108 0001116 096.7874 263.3454 14.32247215437757